{
    "links": {
        "self": "http://www.neowsapp.com/rest/v1/neo/3600104?api_key=iIulBulltgU6a56xZRHN4H3l9WmuAYTsLGpBGhQ2"
    },
    "id": "3600104",
    "neo_reference_id": "3600104",
    "name": "(2012 DG54)",
    "designation": "2012 DG54",
    "nasa_jpl_url": "http://ssd.jpl.nasa.gov/sbdb.cgi?sstr=3600104",
    "absolute_magnitude_h": 20.3,
    "estimated_diameter": {
        "kilometers": {
            "estimated_diameter_min": 0.2315021222,
            "estimated_diameter_max": 0.5176544822
        },
        "meters": {
            "estimated_diameter_min": 231.5021222103,
            "estimated_diameter_max": 517.6544821978
        },
        "miles": {
            "estimated_diameter_min": 0.1438487052,
            "estimated_diameter_max": 0.3216554833
        },
        "feet": {
            "estimated_diameter_min": 759.5214226325,
            "estimated_diameter_max": 1698.3415313737
        }
    },
    "is_potentially_hazardous_asteroid": false,
    "close_approach_data": [
        {
            "close_approach_date": "2011-10-23",
            "close_approach_date_full": "2011-Oct-23 10:07",
            "epoch_date_close_approach": 1319364420000,
            "relative_velocity": {
                "kilometers_per_second": "25.0267396026",
                "kilometers_per_hour": "90096.2625691883",
                "miles_per_hour": "55982.3138169492"
            },
            "miss_distance": {
                "astronomical": "0.4914947979",
                "lunar": "191.1914763831",
                "kilometers": "73526574.881920473",
                "miles": "45687295.0836016074"
            },
            "orbiting_body": "Earth"
        }
    ],
    "orbital_data": {
        "orbit_id": "6",
        "orbit_determination_date": "2017-04-06 08:50:44",
        "first_observation_date": "2012-02-25",
        "last_observation_date": "2012-03-14",
        "data_arc_in_days": 18,
        "observations_used": 28,
        "orbit_uncertainty": "8",
        "minimum_orbit_intersection": ".236077",
        "jupiter_tisserand_invariant": "3.042",
        "epoch_osculation": "2455990.5",
        "eccentricity": ".7328053249159716",
        "semi_major_axis": "2.296639032968418",
        "inclination": "30.76988221857578",
        "ascending_node_longitude": "162.0579855431786",
        "orbital_period": "1271.269241749555",
        "perihelion_distance": ".6136497201992936",
        "perihelion_argument": "228.6213221212908",
        "aphelion_distance": "3.979628345737543",
        "perihelion_time": "2455862.866541226098",
        "mean_anomaly": "36.14344125511113",
        "mean_motion": ".2831815544475521",
        "equinox": "J2000",
        "orbit_class": {
            "orbit_class_type": "APO",
            "orbit_class_description": "Near-Earth asteroid orbits which cross the Earth’s orbit similar to that of 1862 Apollo",
            "orbit_class_range": "a (semi-major axis) > 1.0 AU; q (perihelion) < 1.017 AU"
        }
    },
    "is_sentry_object": false
}